NORAD_CAT_ID,OBJECT_NAME,OBJECT_TYPE,EPOCH,MEAN_MOTION,ECCENTRICITY,INCLINATION,RA_OF_ASC_NODE,ARG_OF_PERICENTER,MEAN_ANOMALY,BSTAR,MEAN_MOTION_DOT,MEAN_MOTION_DDOT,TLE_LINE0,TLE_LINE1,TLE_LINE2,SEMIMAJOR_AXIS,PERIOD,APOGEE,PERIGEE,DECAYED
53426.0,STARLINK-4558,PAYLOAD,2022-09-15 14:00:01,15.73221406,0.000147,53.2167,67.9533,55.8627,250.8415,2.4171e-06,-2.81e-06,0.0,0 STARLINK-4558,1 53426U 22097AQ  22258.58334491 -.00000281  00000-0  24171-5 0  9998,2 53426  53.2167  67.9533 0001470  55.8627 250.8415 15.73221406  1304,6727.834,91.532,350.68800000000016,348.71,0.0
53426.0,STARLINK-4558,PAYLOAD,2022-09-15 22:00:00,15.73234272,0.0001592,53.2162,66.3055,46.5505,349.1048,1.2694e-05,1.164e-05,0.0,0 STARLINK-4558,1 53426U 22097AQ  22258.91667824  .00001164  00000-0  12694-4 0  9990,2 53426  53.2162  66.3055 0001592  46.5505 349.1048 15.73234272  1307,6727.797,91.531,350.7340000000001,348.591,0.0
53426.0,STARLINK-4558,PAYLOAD,2022-09-16 02:00:01,15.73189887,0.0001396999999999,53.2159,65.4762,40.3424,219.7271,0.00022773,0.00031446,0.0,0 STARLINK-4558,1 53426U 22097AQ  22259.08334491  .00031446  00000-0  22773-3 0  9994,2 53426  53.2159  65.4762 0001397  40.3424 219.7271 15.73189887  6231,6727.924,91.534,350.72900000000016,348.849,0.0
53426.0,STARLINK-4558,PAYLOAD,2022-09-16 14:00:01,15.73296824,0.0001315999999999,53.2165,62.9992,49.6259,163.8373,-0.00047255,-0.0006669,0.0,0 STARLINK-4558,1 53426U 22097AQ  22259.58334491 -.00066690  00000-0 -47255-3 0  9992,2 53426  53.2165  62.9992 0001316  49.6259 163.8373 15.73296824  1309,6727.619000000002,91.528,350.369,348.599,0.0
53426.0,STARLINK-4558,PAYLOAD,2022-09-16 22:00:00,15.7321269,0.0001695,53.2165,61.3571,41.1051,261.3509,0.00037311,0.00052098,0.0,0 STARLINK-4558,1 53426U 22097AQ  22259.91667824  .00052098  00000-0  37311-3 0  9995,2 53426  53.2165  61.3571 0001695  41.1051 261.3509 15.73212690  1306,6727.859,91.532,350.86400000000015,348.584,0.0
53426.0,STARLINK-4558,PAYLOAD,2022-09-17 06:00:00,15.73198895,0.0001616,53.2167,59.7055,49.8259,341.6023,0.00012145,0.00016457,0.0,0 STARLINK-4558,1 53426U 22097AQ  22260.25001157  .00016457  00000-0  12145-3 0  9992,2 53426  53.2167  59.7055 0001616  49.8259 341.6023 15.73198895  6414,6727.898,91.533,350.851,348.676,0.0
53426.0,STARLINK-4558,PAYLOAD,2022-09-17 14:00:01,15.73202547,0.0001671,53.2165,58.0568,46.2835,74.0786,-0.0001052,-0.0001536,0.0,0 STARLINK-4558,1 53426U 22097AQ  22260.58334491 -.00015360  00000-0 -10520-3 0  9997,2 53426  53.2165  58.0568 0001671  46.2835  74.0786 15.73202547  1301,6727.888000000001,91.533,350.87699999999984,348.629,0.0
53426.0,STARLINK-4558,PAYLOAD,2022-09-17 22:00:00,15.73206166,0.0001706999999999,53.2159,56.4087,36.7644,172.519,5.6461e-05,7.312e-05,0.0,0 STARLINK-4558,1 53426U 22097AQ  22260.91667824  .00007312  00000-0  56461-4 0  9994,2 53426  53.2159  56.4087 0001707  36.7644 172.5190 15.73206166  6527,6727.878000000002,91.533,350.891,348.594,0.0
53426.0,STARLINK-4558,PAYLOAD,2022-09-18 06:00:00,15.73145789,0.0001452,53.2159,54.7571,38.1421,260.088,0.00060979,0.00085637,0.0,0 STARLINK-4558,1 53426U 22097AQ  22261.25001157  .00085637  00000-0  60979-3 0  9997,2 53426  53.2159  54.7571 0001452  38.1421 260.0880 15.73145789  6579,6728.05,91.536,350.892,348.93800000000016,0.0
53426.0,STARLINK-4558,PAYLOAD,2022-09-18 14:00:01,15.73264085,0.0001599,53.2163,53.1085,36.9805,350.2141,-0.00051126,-0.0007196,0.0,0 STARLINK-4558,1 53426U 22097AQ  22261.58335648 -.00071960  00000-0 -51126-3 0  9998,2 53426  53.2163  53.1085 0001599  36.9805 350.2141 15.73264085  1300,6727.712,91.529,350.653,348.50199999999984,0.0
53426.0,STARLINK-4558,PAYLOAD,2022-09-18 22:00:00,15.73173472,0.000185,53.2162,51.4601,34.856,81.2581,0.0007063,0.00099576,0.0,0 STARLINK-4558,1 53426U 22097AQ  22261.91667824  .00099576  00000-0  70630-3 0  9991,2 53426  53.2162  51.4601 0001850  34.8560  81.2581 15.73173472  6683,6727.971,91.535,351.08,348.591,0.0
53426.0,STARLINK-4558,PAYLOAD,2022-09-19 06:00:02,15.73233998,0.0001666999999999,53.2164,49.8084,37.7429,167.3684,-8.618100000000001e-05,-0.00012715,0.0,0 STARLINK-4558,1 53426U 22097AQ  22262.25002315 -.00012715  00000-0 -86181-4 0  9998,2 53426  53.2164  49.8084 0001667  37.7429 167.3684 15.73233998  6739,6727.7980000000025,91.531,350.785,348.542,0.0
53426.0,STARLINK-4558,PAYLOAD,2022-09-19 14:00:01,15.73224353,0.0001826,53.2162,48.16,36.2814,257.7333,-0.00038541,-0.00054421,0.0,0 STARLINK-4558,1 53426U 22097AQ  22262.58334491 -.00054421  00000-0 -38541-3 0  9993,2 53426  53.2162  48.1600 0001826  36.2814 257.7333 15.73224353  1300,6727.826,91.532,350.9190000000001,348.462,0.0
53426.0,STARLINK-4558,PAYLOAD,2022-09-19 22:00:00,15.73174619,0.0001956999999999,53.2155,46.5113,30.7621,352.1718,-4.8705e-05,-7.443e-05,0.0,0 STARLINK-4558,1 53426U 22097AQ  22262.91667824 -.00007443  00000-0 -48705-4 0  9995,2 53426  53.2155  46.5113 0001957  30.7621 352.1718 15.73174619  1309,6727.968000000003,91.535,351.149,348.516,0.0
53426.0,STARLINK-4558,PAYLOAD,2022-09-20 14:00:01,15.7325535,0.0001759,53.216,43.2116,29.3153,171.4321,-0.0004559,-0.00064271,0.0,0 STARLINK-4558,1 53426U 22097AQ  22263.58334491 -.00064271  00000-0 -45590-3 0  9990,2 53426  53.2160  43.2116 0001759  29.3153 171.4321 15.73255350  1300,6727.736999999999,91.53,350.786,348.4190000000001,0.0
53426.0,STARLINK-4558,PAYLOAD,2022-09-20 22:00:01,15.73219731,0.0001914,53.2159,41.5625,20.7542,269.0308,-0.00029066,-0.00041251,0.0,0 STARLINK-4558,1 53426U 22097AQ  22263.91668981 -.00041251  00000-0 -29066-3 0  9994,2 53426  53.2159  41.5625 0001914  20.7542 269.0308 15.73219731  1306,6727.839,91.532,350.992,348.416,0.0
53426.0,STARLINK-4558,PAYLOAD,2022-09-21 14:00:01,15.73152144,0.0001940999999999,53.216,38.2631,21.7255,85.7891,0.00015298,0.00020859,0.0,0 STARLINK-4558,1 53426U 22097AQ  22264.58334491  .00020859  00000-0  15298-3 0  9995,2 53426  53.2160  38.2631 0001941  21.7255  85.7891 15.73152144  7108,6728.031999999997,91.536,351.20300000000015,348.591,0.0
53426.0,STARLINK-4558,PAYLOAD,2022-09-21 22:00:00,15.73172051,0.0002126999999999,53.2156,36.6088,20.5183,175.8762,0.00045488,0.00063631,0.0,0 STARLINK-4558,1 53426U 22097AQ  22264.91667824  .00063631  00000-0  45488-3 0  9990,2 53426  53.2156  36.6088 0002127  20.5183 175.8762 15.73172051  1308,6727.975,91.535,351.271,348.409,0.0
53426.0,STARLINK-4558,PAYLOAD,2022-09-22 06:00:00,15.73276017,0.0001894,53.2164,34.9513,27.3076,258.0023,-0.00049413,-0.00069628,0.0,0 STARLINK-4558,1 53426U 22097AQ  22265.25001157 -.00069628  00000-0 -49413-3 0  9995,2 53426  53.2164  34.9513 0001894  27.3076 258.0023 15.73276017  7203,6727.678000000001,91.529,350.8180000000001,348.269,0.0
53426.0,STARLINK-4558,PAYLOAD,2022-09-22 14:00:01,15.73205501,0.0002145,53.216,33.3144,26.5934,347.6838,6.5635e-05,8.602e-05,0.0,0 STARLINK-4558,1 53426U 22097AQ  22265.58334491  .00008602  00000-0  65635-4 0  9999,2 53426  53.2160  33.3144 0002145  26.5934 347.6838 15.73205501  1300,6727.879,91.533,351.18800000000016,348.301,0.0
53426.0,STARLINK-4558,PAYLOAD,2022-09-22 22:00:00,15.73223501,0.0002217,53.2161,31.6651,20.0981,83.1168,-0.00034987,-0.0004948999999999,0.0,0 STARLINK-4558,1 53426U 22097AQ  22265.91667824 -.00049490  00000-0 -34987-3 0  9992,2 53426  53.2161  31.6651 0002217  20.0981  83.1168 15.73223501  1304,6727.828,91.532,351.185,348.202,0.0
53426.0,STARLINK-4558,PAYLOAD,2022-09-23 06:00:00,15.73287217,0.0001946,53.2168,30.0016,24.3251,167.7937,-0.00074684,-0.0010454,0.0,0 STARLINK-4558,1 53426U 22097AQ  22266.25001157 -.00104540  00000-0 -74684-3 0  9997,2 53426  53.2168  30.0016 0001946  24.3251 167.7937 15.73287217  7363,6727.647,91.528,350.821,348.202,0.0
53426.0,STARLINK-4558,PAYLOAD,2022-09-23 14:00:01,15.73202753,0.0002024,53.2175,28.3491,26.9832,254.1292,2.0864e-05,2.308e-05,0.0,0 STARLINK-4558,1 53426U 22097AQ  22266.58334491  .00002308  00000-0  20864-4 0  9992,2 53426  53.2175  28.3491 0002024  26.9832 254.1292 15.73202753  1304,6727.887,91.533,351.11400000000015,348.391,0.0
53426.0,STARLINK-4558,PAYLOAD,2022-09-23 22:00:00,15.73305215,0.0002376,53.2162,26.7092,17.5981,352.4543,-0.0014811,-0.00204473,0.0,0 STARLINK-4558,1 53426U 22097AQ  22266.91667824 -.00204473  00000-0 -14811-2 0  9990,2 53426  53.2162  26.7092 0002376  17.5981 352.4543 15.73305215  7461,6727.595,91.527,351.059,347.862,0.0
53426.0,STARLINK-4558,PAYLOAD,2022-09-24 06:00:00,15.73245371,0.0002117,53.2161,25.0649,18.7048,80.366,-9.7291e-05,-0.0001428,0.0,0 STARLINK-4558,1 53426U 22097AQ  22267.25001157 -.00014280  00000-0 -97291-4 0  9999,2 53426  53.2161  25.0649 0002117  18.7048  80.3660 15.73245371  7520,6727.766,91.531,351.055,348.207,0.0
53426.0,STARLINK-4558,PAYLOAD,2022-09-24 14:00:01,15.73243613,0.0002393,53.2164,23.4171,18.4461,169.6785,-0.00041947,-0.00059197,0.0,0 STARLINK-4558,1 53426U 22097AQ  22267.58335648 -.00059197  00000-0 -41947-3 0  9992,2 53426  53.2164  23.4171 0002393  18.4461 169.6785 15.73243613  1303,6727.771,91.531,351.246,348.026,0.0
53426.0,STARLINK-4558,PAYLOAD,2022-09-24 22:00:00,15.73237901,0.0002472,53.2165,21.7674,15.8806,261.134,-0.00077956,-0.0010881999999999,0.0,0 STARLINK-4558,1 53426U 22097AQ  22267.91667824 -.00108820  00000-0 -77956-3 0  9990,2 53426  53.2165  21.7674 0002472  15.8806 261.1340 15.73237901  1303,6727.7869999999975,91.531,351.315,347.98900000000015,0.0
53426.0,STARLINK-4558,PAYLOAD,2022-09-25 06:00:00,15.73126159,0.000234,53.2169,20.1162,18.0055,347.9464,0.00076079,0.0010719,0.0,0 STARLINK-4558,1 53426U 22097AQ  22268.25001157  .00107190  00000-0  76079-3 0  9991,2 53426  53.2169  20.1162 0002340  18.0055 347.9464 15.73126159  7675,6728.106,91.537,351.545,348.396,0.0
53426.0,STARLINK-4558,PAYLOAD,2022-09-25 14:00:01,15.732298000000002,0.0002616,53.2167,18.4691,15.5429,79.28699999999998,-0.00036626,-0.00051784,0.0,0 STARLINK-4558,1 53426U 22097AQ  22268.58334491 -.00051784  00000-0 -36626-3 0  9990,2 53426  53.2167  18.4691 0002616  15.5429  79.2870 15.73229800  1300,6727.81,91.531,351.435,347.915,0.0
